start=new Date('2021-09-09T00:00:00.000Z').valueOf();
sats=[{"EPHEMERIS_TYPE":"0","RCS_SIZE":"LARGE","TLE_LINE1":"1 47895U 21021AM  21251.89424575 -.00000952  00000-0 -45040-4 0  9999","BSTAR":"-0.00004504000000","TIME_SYSTEM":"UTC","EPOCH":"2021-09-08T21:27:42.832800","OBJECT_NAME":"STARLINK-2355","PERIOD":"95.592","ELEMENT_SET_NO":"999","INCLINATION":"53.0562","REF_FRAME":"TEME","FILE":"3111252","ARG_OF_PERICENTER":"96.6454","CENTER_NAME":"EARTH","RA_OF_ASC_NODE":"86.4011","MEAN_MOTION":"15.06397062","MEAN_ANOMALY":"263.4755","LAUNCH_DATE":"2021-03-14","COUNTRY_CODE":"US","NORAD_CAT_ID":"47895","APOAPSIS":"548.565","DECAY_DATE":null,"MEAN_ELEMENT_THEORY":"SGP4","OBJECT_ID":"2021-021AM","ECCENTRICITY":"0.00019380","GP_ID":"184349320","TLE_LINE2":"2 47895  53.0562  86.4011 0001938  96.6454 263.4755 15.06397062 28563","MEAN_MOTION_DOT":"-0.00000952","SITE":"AFETR","MEAN_MOTION_DDOT":"0.0000000000000","OBJECT_TYPE":"PAYLOAD","PERIAPSIS":"545.880","REV_AT_EPOCH":"2856","SEMIMAJOR_AXIS":"6925.358","CLASSIFICATION_TYPE":"U"},{"EPOCH":"2021-09-08T16:31:08.774400","OBJECT_NAME":"STARLINK-2356","TIME_SYSTEM":"UTC","RCS_SIZE":"LARGE","TLE_LINE1":"1 47896U 21021AN  21251.68829600 -.00000599  00000-0 -21348-4 0  9997","BSTAR":"-0.00002134800000","EPHEMERIS_TYPE":"0","RA_OF_ASC_NODE":"102.2897","CENTER_NAME":"EARTH","FILE":"3111252","ARG_OF_PERICENTER":"103.9031","REF_FRAME":"TEME","INCLINATION":"53.0534","PERIOD":"95.592","ELEMENT_SET_NO":"999","GP_ID":"184347568","ECCENTRICITY":"0.00014080","OBJECT_ID":"2021-021AN","NORAD_CAT_ID":"47896","APOAPSIS":"548.201","MEAN_ELEMENT_THEORY":"SGP4","DECAY_DATE":null,"COUNTRY_CODE":"US","LAUNCH_DATE":"2021-03-14","MEAN_ANOMALY":"256.2114","MEAN_MOTION":"15.06395956","REV_AT_EPOCH":"2829","SEMIMAJOR_AXIS":"6925.361","CLASSIFICATION_TYPE":"U","PERIAPSIS":"546.251","OBJECT_TYPE":"PAYLOAD","MEAN_MOTION_DOT":"-0.00000599","TLE_LINE2":"2 47896  53.0534 102.2897 0001408 103.9031 256.2114 15.06395956 28296","SITE":"AFETR","MEAN_MOTION_DDOT":"0.0000000000000"},{"OBJECT_ID":"2021-021AP","ECCENTRICITY":"0.00019140","GP_ID":"184347818","COUNTRY_CODE":"US","APOAPSIS":"548.566","NORAD_CAT_ID":"47897","DECAY_DATE":null,"MEAN_ELEMENT_THEORY":"SGP4","LAUNCH_DATE":"2021-03-14","MEAN_MOTION":"15.06391320","MEAN_ANOMALY":"266.6106","REV_AT_EPOCH":"2859","CLASSIFICATION_TYPE":"U","SEMIMAJOR_AXIS":"6925.375","OBJECT_TYPE":"PAYLOAD","PERIAPSIS":"545.915","MEAN_MOTION_DOT":"-0.00001459","TLE_LINE2":"2 47897  53.0564  86.4187 0001914  93.5102 266.6106 15.06391320 28590","SITE":"AFETR","MEAN_MOTION_DDOT":"0.0000000000000","TIME_SYSTEM":"UTC","EPOCH":"2021-09-08T21:22:24.703680","OBJECT_NAME":"STARLINK-2357","RCS_SIZE":"LARGE","TLE_LINE1":"1 47897U 21021AP  21251.89056370 -.00001459  00000-0 -79082-4 0  9991","BSTAR":"-0.00007908200000","EPHEMERIS_TYPE":"0","CENTER_NAME":"EARTH","RA_OF_ASC_NODE":"86.4187","FILE":"3111252","ARG_OF_PERICENTER":"93.5102","REF_FRAME":"TEME","PERIOD":"95.593","ELEMENT_SET_NO":"999","INCLINATION":"53.0564"},{"OBJECT_NAME":"STARLINK-2358","EPOCH":"2021-09-08T21:17:06.280800","TIME_SYSTEM":"UTC","TLE_LINE1":"1 47898U 21021AQ  21251.88687825 -.00001077  00000-0 -53396-4 0  9992","BSTAR":"-0.00005339600000","RCS_SIZE":"LARGE","EPHEMERIS_TYPE":"0","CENTER_NAME":"EARTH","RA_OF_ASC_NODE":"86.4343","ARG_OF_PERICENTER":"90.1821","FILE":"3111252","REF_FRAME":"TEME","INCLINATION":"53.0570","ELEMENT_SET_NO":"999","PERIOD":"95.592","ECCENTRICITY":"0.00020740","GP_ID":"184349070","OBJECT_ID":"2021-021AQ","DECAY_DATE":null,"MEAN_ELEMENT_THEORY":"SGP4","APOAPSIS":"548.663","NORAD_CAT_ID":"47898","COUNTRY_CODE":"US","LAUNCH_DATE":"2021-03-14","MEAN_ANOMALY":"269.9406","MEAN_MOTION":"15.06395579","SEMIMAJOR_AXIS":"6925.362","CLASSIFICATION_TYPE":"U","REV_AT_EPOCH":"2853","PERIAPSIS":"545.791","OBJECT_TYPE":"PAYLOAD","MEAN_MOTION_DDOT":"0.0000000000000","TLE_LINE2":"2 47898  53.0570  86.4343 0002074  90.1821 269.9406 15.06395579 28534","SITE":"AFETR","MEAN_MOTION_DOT":"-0.00001077"},{"INCLINATION":"53.0561","ELEMENT_SET_NO":"999","PERIOD":"95.592","REF_FRAME":"TEME","ARG_OF_PERICENTER":"109.8468","FILE":"3111252","RA_OF_ASC_NODE":"76.4489","CENTER_NAME":"EARTH","EPHEMERIS_TYPE":"0","BSTAR":"-0.00003689800000","TLE_LINE1":"1 47899U 21021AR  21251.88411678 -.00000831  00000-0 -36898-4 0  9999","RCS_SIZE":"LARGE","OBJECT_NAME":"STARLINK-2359","EPOCH":"2021-09-08T21:13:07.689792","TIME_SYSTEM":"UTC","MEAN_MOTION_DDOT":"0.0000000000000","TLE_LINE2":"2 47899  53.0561  76.4489 0002028 109.8468 250.2739 15.06396465 28738","MEAN_MOTION_DOT":"-0.00000831","SITE":"AFETR","PERIAPSIS":"545.820","OBJECT_TYPE":"PAYLOAD","SEMIMAJOR_AXIS":"6925.359","CLASSIFICATION_TYPE":"U","REV_AT_EPOCH":"2873","MEAN_ANOMALY":"250.2739","MEAN_MOTION":"15.06396465","LAUNCH_DATE":"2021-03-14","MEAN_ELEMENT_THEORY":"SGP4","DECAY_DATE":null,"APOAPSIS":"548.629","NORAD_CAT_ID":"47899","COUNTRY_CODE":"US","GP_ID":"184348820","ECCENTRICITY":"0.00020280","OBJECT_ID":"2021-021AR"},{"RA_OF_ASC_NODE":"86.3407","CENTER_NAME":"EARTH","ARG_OF_PERICENTER":"106.6398","FILE":"3111252","REF_FRAME":"TEME","ELEMENT_SET_NO":"999","PERIOD":"95.593","INCLINATION":"53.0567","TIME_SYSTEM":"UTC","OBJECT_NAME":"STARLINK-2360","EPOCH":"2021-09-08T21:47:35.586528","BSTAR":"-0.00002573100000","TLE_LINE1":"1 47900U 21021AS  21251.90805077 -.00000665  00000-0 -25731-4 0  9994","RCS_SIZE":"LARGE","EPHEMERIS_TYPE":"0","CLASSIFICATION_TYPE":"U","SEMIMAJOR_AXIS":"6925.383","REV_AT_EPOCH":"2859","OBJECT_TYPE":"PAYLOAD","PERIAPSIS":"545.771","MEAN_MOTION_DDOT":"0.0000000000000","MEAN_MOTION_DOT":"-0.00000665","TLE_LINE2":"2 47900  53.0567  86.3407 0002132 106.6398 253.4825 15.06388770 28595","SITE":"AFETR","OBJECT_ID":"2021-021AS","GP_ID":"184348069","ECCENTRICITY":"0.00021320","COUNTRY_CODE":"US","MEAN_ELEMENT_THEORY":"SGP4","DECAY_DATE":null,"NORAD_CAT_ID":"47900","APOAPSIS":"548.724","LAUNCH_DATE":"2021-03-14","MEAN_MOTION":"15.06388770","MEAN_ANOMALY":"253.4825"},{"REF_FRAME":"TEME","INCLINATION":"53.0485","ELEMENT_SET_NO":"999","PERIOD":"95.592","RA_OF_ASC_NODE":"77.4588","CENTER_NAME":"EARTH","ARG_OF_PERICENTER":"107.0113","FILE":"3111252","BSTAR":"-0.00001845600000","TLE_LINE1":"1 47901U 21021AT  21251.66569114 -.00000557  00000-0 -18456-4 0  9993","RCS_SIZE":"LARGE","EPHEMERIS_TYPE":"0","OBJECT_NAME":"STARLINK-2361","EPOCH":"2021-09-08T15:58:35.714496","TIME_SYSTEM":"UTC","PERIAPSIS":"545.686","OBJECT_TYPE":"PAYLOAD","MEAN_MOTION_DDOT":"0.0000000000000","MEAN_MOTION_DOT":"-0.00000557","TLE_LINE2":"2 47901  53.0485  77.4588 0002185 107.0113 253.1116 15.06404642 28681","SITE":"AFETR","CLASSIFICATION_TYPE":"U","SEMIMAJOR_AXIS":"6925.334","REV_AT_EPOCH":"2868","LAUNCH_DATE":"2021-03-14","MEAN_ANOMALY":"253.1116","MEAN_MOTION":"15.06404642","ECCENTRICITY":"0.00021850","GP_ID":"184348319","OBJECT_ID":"2021-021AT","MEAN_ELEMENT_THEORY":"SGP4","DECAY_DATE":null,"NORAD_CAT_ID":"47901","APOAPSIS":"548.713","COUNTRY_CODE":"US"},{"INCLINATION":"53.0547","PERIOD":"95.592","ELEMENT_SET_NO":"999","REF_FRAME":"TEME","FILE":"3111252","ARG_OF_PERICENTER":"83.9561","CENTER_NAME":"EARTH","RA_OF_ASC_NODE":"96.5684","EPHEMERIS_TYPE":"0","BSTAR":"-0.00005367300000","TLE_LINE1":"1 47902U 21021AU  21251.85646733 -.00001081  00000-0 -53673-4 0  9991","RCS_SIZE":"LARGE","EPOCH":"2021-09-08T20:33:18.777312","OBJECT_NAME":"STARLINK-2362","TIME_SYSTEM":"UTC","MEAN_MOTION_DOT":"-0.00001081","TLE_LINE2":"2 47902  53.0547  96.5684 0001937  83.9561 276.1649 15.06396191 28543","SITE":"AFETR","MEAN_MOTION_DDOT":"0.0000000000000","PERIAPSIS":"545.884","OBJECT_TYPE":"PAYLOAD","REV_AT_EPOCH":"2854","SEMIMAJOR_AXIS":"6925.360","CLASSIFICATION_TYPE":"U","MEAN_ANOMALY":"276.1649","MEAN_MOTION":"15.06396191","LAUNCH_DATE":"2021-03-14","APOAPSIS":"548.567","NORAD_CAT_ID":"47902","MEAN_ELEMENT_THEORY":"SGP4","DECAY_DATE":null,"COUNTRY_CODE":"US","GP_ID":"184348570","ECCENTRICITY":"0.00019370","OBJECT_ID":"2021-021AU"},{"PERIAPSIS":"545.828","OBJECT_TYPE":"PAYLOAD","TLE_LINE2":"2 47903  53.0564  76.4666 0002048 109.4796 250.6414 15.06389152 29062","SITE":"AFETR","MEAN_MOTION_DOT":"-0.00001021","MEAN_MOTION_DDOT":"0.0000000000000","REV_AT_EPOCH":"2906","CLASSIFICATION_TYPE":"U","SEMIMAJOR_AXIS":"6925.382","LAUNCH_DATE":"2021-03-14","MEAN_ANOMALY":"250.6414","MEAN_MOTION":"15.06389152","GP_ID":"184349321","ECCENTRICITY":"0.00020480","OBJECT_ID":"2021-021AV","NORAD_CAT_ID":"47903","APOAPSIS":"548.665","DECAY_DATE":null,"MEAN_ELEMENT_THEORY":"SGP4","COUNTRY_CODE":"US","REF_FRAME":"TEME","INCLINATION":"53.0564","PERIOD":"95.593","ELEMENT_SET_NO":"999","CENTER_NAME":"EARTH","RA_OF_ASC_NODE":"76.4666","FILE":"3111252","ARG_OF_PERICENTER":"109.4796","TLE_LINE1":"1 47903U 21021AV  21251.88043031 -.00001021  00000-0 -49624-4 0  9992","BSTAR":"-0.00004962400000","RCS_SIZE":"LARGE","EPHEMERIS_TYPE":"0","EPOCH":"2021-09-08T21:07:49.178784","OBJECT_NAME":"STARLINK-2363","TIME_SYSTEM":"UTC"},{"PERIAPSIS":"545.850","OBJECT_TYPE":"PAYLOAD","MEAN_MOTION_DDOT":"0.0000000000000","TLE_LINE2":"2 47904  53.0553  77.0758 0001975 101.3768 258.7443 15.06398664 28684","MEAN_MOTION_DOT":"0.00000274","SITE":"AFETR","SEMIMAJOR_AXIS":"6925.353","CLASSIFICATION_TYPE":"U","REV_AT_EPOCH":"2868","LAUNCH_DATE":"2021-03-14","MEAN_ANOMALY":"258.7443","MEAN_MOTION":"15.06398664","GP_ID":"184347569","ECCENTRICITY":"0.00019750","OBJECT_ID":"2021-021AW","MEAN_ELEMENT_THEORY":"SGP4","DECAY_DATE":null,"NORAD_CAT_ID":"47904","APOAPSIS":"548.585","COUNTRY_CODE":"US","REF_FRAME":"TEME","INCLINATION":"53.0553","ELEMENT_SET_NO":"999","PERIOD":"95.592","CENTER_NAME":"EARTH","RA_OF_ASC_NODE":"77.0758","ARG_OF_PERICENTER":"101.3768","FILE":"3111252","BSTAR":"0.00003731500000","TLE_LINE1":"1 47904U 21021AW  21251.74404081  .00000274  00000-0  37315-4 0  9995","RCS_SIZE":"LARGE","EPHEMERIS_TYPE":"0","OBJECT_NAME":"STARLINK-2364","EPOCH":"2021-09-08T17:51:25.125984","TIME_SYSTEM":"UTC"}];
